1 51112C 22005J   22205.89423611  .00003879  00000+0  24331-3 0  2056
2 51112  53.2184 111.8675 0001987  50.2700 326.2823 15.08823111    10
1 51112C 22005J   22206.19701389  .00013846  00000+0  86837-3 0  2066
2 51112  53.2185 110.5085 0002001  50.8478 171.2225 15.08818423    12
1 51112C 22005J   22206.56229167  .00008656  00000+0  54277-3 0  2062
2 51112  53.2186 108.8689 0002000  51.3873 355.8709 15.08828932    10
1 51112C 22005J   22206.89284722  .00001474  00000+0  92425-4 0  2065
2 51112  53.2186 107.3852 0002002  52.5055 351.2399 15.08839768    17
1 51112C 22005J   22207.22340278  .00012888  00000+0  80795-3 0  2070
2 51112  53.2185 105.9015 0002012  53.2043 347.0416 15.08835762    10
1 51112C 22005J   22207.54770833  .00008041  00000+0  50404-3 0  2079
2 51112  53.2185 104.4459 0002007  53.9454 308.8348 15.08844450    16
1 51112C 22005J   22207.89840278 -.00017357  00000+0 -10881-2 0  2074
2 51112  53.2183 102.8717 0001984  54.5373  54.1962 15.08867173    13
1 51112C 22005J   22208.19145833 -.00013136  00000+0 -82360-3 0  2087
2 51112  53.2181 101.5562 0001965  54.7774 206.6725 15.08855811    18
1 51112C 22005J   22208.54145833  .00007395  00000+0  46370-3 0  2085
2 51112  53.2180  99.9852 0001931  54.7477 308.9022 15.08831079    18
1 51112C 22005J   22208.87895833  .00002286  00000+0  14332-3 0  2080
2 51112  53.2179  98.4702 0001942  55.2689 342.6123 15.08838620    13
1 51112C 22005J   22209.19284722 -.00000099  00000+0 -61982-5 0  2093
2 51112  53.2176  97.0612 0001947  54.9066 248.8905 15.08843613    18
1 51112C 22005J   22209.55256944 -.00015920  00000+0 -99838-3 0  2096
2 51112  53.2176  95.4465 0001929  54.8353  43.9799 15.08851669    19
1 51112C 22005J   22209.87270833 -.00000407  00000+0 -25533-4 0  2090
2 51112  53.2175  94.0093 0001901  55.1386 343.5779 15.08828825    15
1 51112C 22005J   22210.16993056 -.00030632  00000+0 -19207-2 0  2107
2 51112  53.2174  92.6751 0001934  57.8725 156.1798 15.08872227    15
1 51112C 22005J   22210.53659722  .00006714  00000+0  42113-3 0  2102
2 51112  53.2174  91.0290 0001875  56.7350 350.1149 15.08822261    11
1 51112C 22005J   22210.88729167  .00004683  00000+0  29373-3 0  2107
2 51112  53.2174  89.4546 0001911  56.7127  96.0688 15.08827664    15
1 51112C 22005J   22211.22340278  .00009671  00000+0  60641-3 0  2114
2 51112  53.2174  87.9458 0001937  57.2560 122.2032 15.08829505    16
1 51112C 22005J   22211.54493056  .00007275  00000+0  45616-3 0  2115
2 51112  53.2175  86.5024 0001960  57.5880  69.2991 15.08834913    18
1 51112C 22005J   22211.87895833 -.00018892  00000+0 -11848-2 0  2118
2 51112  53.2176  85.0028 0001953  57.4264  84.8240 15.08854601    10
1 51112C 22005J   22212.16090278 -.00010267  00000+0 -64394-3 0  2125
2 51112  53.2176  83.7370 0001947  57.3335 177.2338 15.08840326    10
1 51112C 22005J   22212.53659722  .00007283  00000+0  45686-3 0  2126
2 51112  53.2178  82.0504 0001929  56.9366  59.4511 15.08819306    10
1 51112C 22005J   22212.88451389  .00005775  00000+0  36219-3 0  2129
2 51112  53.2179  80.4885 0001945  57.7130 149.5078 15.08824570    19
1 51112C 22005J   22213.15673611  .00010570  00000+0  66285-3 0  2130
2 51112  53.2179  79.2665 0001944  58.1063 188.5703 15.08825515    18
1 51112C 22005J   22213.53590278  .00006643  00000+0  41651-3 0  2135
2 51112  53.2181  77.5643 0001950  58.8212  88.5325 15.08833356    19
1 51112C 22005J   22213.87895833  .00003644  00000+0  22846-3 0  2130
2 51112  53.2181  76.0242 0001938  59.5099 152.2751 15.08838883    17
1 51112C 22005J   22214.21090278 -.00015311  00000+0 -96003-3 0  2142
2 51112  53.2181  74.5341 0001888  59.6754 156.1499 15.08855673    11
1 51112C 22005J   22214.55604167 -.00010713  00000+0 -67197-3 0  2140
2 51112  53.2181  72.9846 0001858  59.9525 231.6429 15.08839771    12
1 51112C 22005J   22214.89631944  .00004812  00000+0  30183-3 0  2146
2 51112  53.2181  71.4571 0001825  60.3378 280.5966 15.08820680    15
1 51112C 22005J   22215.23451389  .00006193  00000+0  38840-3 0  2151
2 51112  53.2180  69.9390 0001833  60.7852 318.1417 15.08826404    14
1 51112C 22005J   22215.54770833  .00003976  00000+0  24935-3 0  2159
2 51112  53.2180  68.5330 0001819  61.4360 219.6212 15.08831151    12
1 51112C 22005J   22215.89006944  .00005671  00000+0  35562-3 0  2154
2 51112  53.2179  66.9962 0001828  62.5990 279.1127 15.08830650    13
1 51112C 22005J   22216.20187500  .00005885  00000+0  36898-3 0  2169
2 51112  53.2179  65.5966 0001839  62.7954 173.5032 15.08836113    18
1 51112C 22005J   22216.56437500  .00002673  00000+0  16759-3 0  2162
2 51112  53.2178  63.9694 0001850  63.4622 342.9420 15.08842664    11
1 51112C 22005J   22216.88173611  .00004455  00000+0  27927-3 0  2166
2 51112  53.2178  62.5447 0001851  63.8472 267.3545 15.08842300    15
1 51112C 22005J   22217.20534722 -.00018244  00000+0 -11439-2 0  2171
2 51112  53.2178  61.0921 0001818  63.1194 226.8375 15.08862076    16
1 51112C 22005J   22217.54909722 -.00009707  00000+0 -60872-3 0  2174
2 51112  53.2179  59.5490 0001790  63.1722 295.0129 15.08845123    15
1 51112C 22005J   22217.89423611  .00009062  00000+0  56833-3 0  2174
2 51112  53.2179  57.9997 0001786  62.6088  11.3411 15.08824191    18
1 51112C 22005J   22218.19493056  .00007957  00000+0  49894-3 0  2189
2 51112  53.2180  56.6499 0001810  62.3181 205.8263 15.08832583    11
1 51112C 22005J   22218.56159722 -.00004525  00000+0 -28370-3 0  2185
2 51112  53.2181  55.0039 0001820  63.0153  37.8717 15.08846843    14
1 51112C 22005J   22218.87479167 -.00016565  00000+0 -10389-2 0  2184
2 51112  53.2182  53.5981 0001784  61.9860 301.0512 15.08850866    14
1 51112C 22005J   22219.18937500 -.00002813  00000+0 -17643-3 0  2192
2 51112  53.2183  52.1858 0001787  61.3378 211.4024 15.08832795    17
1 51112C 22005J   22219.55604167  .00005541  00000+0  34750-3 0  2190
2 51112  53.2184  50.5399 0001775  61.2542  44.2273 15.08828479    11
1 51112C 22005J   22219.88798611  .00016055  00000+0  10066-2 0  2199
2 51112  53.2186  49.0498 0001779  60.9530  48.5697 15.08828758    10
1 51112C 22005J   22220.18798611  .00011923  00000+0  74727-3 0  2200
2 51112  53.2187  47.7031 0001781  60.3490 239.6010 15.08844546    16
1 51112C 22005J   22220.54909722 -.00019205  00000+0 -12037-2 0  2205
2 51112  53.2187  46.0820 0001737  60.7868  41.7264 15.08875109    10
1 51112C 22005J   22220.89215278 -.00020755  00000+0 -13015-2 0  2208
2 51112  53.2188  44.5420 0001661  58.6937 108.2915 15.08858632    13
1 51112C 22005J   22221.17756944 -.00006165  00000+0 -38671-3 0  2216
2 51112  53.2188  43.2607 0001590  57.8549 220.3252 15.08835414    10
1 51112C 22005J   22221.55326389 -.00020953  00000+0 -13146-2 0  2214
2 51112  53.2188  41.5741 0001503  57.3160 102.6659 15.08840473    12
1 51112C 22005J   22221.89145833  .00003277  00000+0  20560-3 0  2211
2 51112  53.2188  40.0559 0001476  55.7708 142.2264 15.08810423    16
1 51112C 22005J   22222.23729167  .00026847  00000+0  16844-2 0  2226
2 51112  53.2183  38.5002 0001482  54.4548 223.0464 15.08792210    14
1 51112C 22005J   22222.54770833  .00003768  00000+0  23641-3 0  2227
2 51112  53.2186  37.1100 0001414  56.4677 108.0367 15.08818616    14
1 51112C 22005J   22222.87826389  .00012842  00000+0  80559-3 0  2225
2 51112  53.2185  35.6261 0001417  56.5472 104.4359 15.08813346    17
1 51112C 22005J   22223.20812500  .00007864  00000+0  49323-3 0  2236
2 51112  53.2184  34.1454 0001409  56.9829  96.6980 15.08824621    15
1 51112C 22005J   22223.53381944  .00003286  00000+0  20604-3 0  2230
2 51112  53.2183  32.6832 0001410  57.4054  66.3358 15.08835035    19
1 51112C 22005J   22223.89145833  .00015225  00000+0  95451-3 0  2232
2 51112  53.2183  31.0778 0001423  57.4462 209.9857 15.08830963    12
1 51112C 22005J   22224.22270833  .00006620  00000+0  41495-3 0  2248
2 51112  53.2182  29.5908 0001436  57.0420 210.6586 15.08847185    14
1 51112C 22005J   22224.56437500 -.00018796  00000+0 -11782-2 0  2245
2 51112  53.2182  28.0569 0001469  57.9315 266.6576 15.08870543    13
1 51112C 22005J   22224.87965278 -.00010889  00000+0 -68276-3 0  2243
2 51112  53.2182  26.6416 0001555  59.0871 179.0000 15.08851782    17
1 51112C 22005J   22225.21715278 -.00017533  00000+0 -10998-2 0  2256
2 51112  53.2183  25.1265 0001632  60.4707 211.8658 15.08844525    15
1 51112C 22005J   22225.54979167  .00002750  00000+0  17252-3 0  2255
2 51112  53.2184  23.6332 0001682  60.8380 219.3228 15.08823060    17
1 51112C 22005J   22225.87479167  .00016380  00000+0  10273-2 0  2255
2 51112  53.2186  22.1744 0001712  60.4454 186.0058 15.08815532    18
1 51112C 22005J   22226.20395833  .00011204  00000+0  70251-3 0  2264
2 51112  53.2188  20.6968 0001726  59.9104 175.4704 15.08829004    10
1 51112C 22005J   22226.54284722 -.00004117  00000+0 -25813-3 0  2266
2 51112  53.2189  19.1755 0001705  59.1980 217.9560 15.08850294    16
1 51112C 22005J   22226.87131944 -.00010042  00000+0 -62967-3 0  2264
2 51112  53.2192  17.7011 0001698  58.8200 203.5194 15.08849728    15
1 51112C 22005J   22227.21020833  .00005030  00000+0  31543-3 0  2273
2 51112  53.2194  16.1799 0001683  57.9952 246.1493 15.08829859    19
1 51112C 22005J   22227.53729167  .00005541  00000+0  34746-3 0  2279
2 51112  53.2195  14.7116 0001672  57.4696 224.2908 15.08836050    14
1 51112C 22005J   22227.87895833  .00001950  00000+0  12223-3 0  2276
2 51112  53.2197  13.1781 0001717  57.1688 281.4731 15.08844597    19
1 51112C 22005J   22228.22340278 -.00012856  00000+0 -80616-3 0  2285
2 51112  53.2198  11.6320 0001735  57.7626 352.8681 15.08852518    19
1 51112C 22005J   22228.56229167  .00004897  00000+0  30708-3 0  2286
2 51112  53.2199  10.1107 0001767  58.7967  33.6390 15.08834707    12
1 51112C 22005J   22228.85256944  .00006299  00000+0  39492-3 0  2288
2 51112  53.2198   8.8078 0001748  58.7146 171.3139 15.08837477    18
